{
  "type": "FeatureCollection",
  "features": [
    {
      "type": "Feature",
      "properties": {
        "norad_id": 33886,
        "name": "IRIDIUM 33 DEB",
        "group": "iridium-33-debris",
        "lat": 1.5810094239498982,
        "lon": 68.18461105634455,
        "alt_km": 777.672646840967,
        "timestamp": "2025-12-10T16:57:12.023029+00:00",
        "meta_object_name": "IRIDIUM 33 DEB",
        "meta_object_id": "1997-051BF",
        "meta_epoch": "2025-12-10T11:58:44.158944",
        "meta_mean_motion": 14.36047962,
        "meta_eccentricity": 0.0012175,
        "meta_inclination": 86.383,
        "meta_ra_of_asc_node": 68.1718,
        "meta_arg_of_pericenter": 250.4448,
        "meta_mean_anomaly": 120.2843,
        "meta_ephemeris_type": 0,
        "meta_classification_type": "U",
        "meta_norad_cat_id": 33886,
        "meta_element_set_no": 999,
        "meta_rev_at_epoch": 88020,
        "meta_bstar": 0.00032782,
        "meta_mean_motion_dot": 9.73e-06,
        "meta_mean_motion_ddot": 0,
        "tle_line1": "1 33886U 97051BF  25344.49912221  .00000973  00000+0  32782-3 0  9991",
        "tle_line2": "2 33886  86.3830  68.1718 0012175 250.4448 120.2843 14.36047962880202"
      },
      "geometry": {
        "type": "Point",
        "coordinates": [
          68.18461105634455,
          1.5810094239498982
        ]
      }
    },
    {
      "type": "Feature",
      "properties": {
        "norad_id": 33887,
        "name": "IRIDIUM 33 DEB",
        "group": "iridium-33-debris",
        "lat": -70.38880594917214,
        "lon": -6.182103448217282,
        "alt_km": 773.255426621261,
        "timestamp": "2025-12-10T16:57:12.023040+00:00",
        "meta_object_name": "IRIDIUM 33 DEB",
        "meta_object_id": "1997-051BG",
        "meta_epoch": "2025-12-10T09:13:38.157024",
        "meta_mean_motion": 14.37217786,
        "meta_eccentricity": 0.0004256,
        "meta_inclination": 86.3045,
        "meta_ra_of_asc_node": 4.4073,
        "meta_arg_of_pericenter": 237.1767,
        "meta_mean_anomaly": 187.5472,
        "meta_ephemeris_type": 0,
        "meta_classification_type": "U",
        "meta_norad_cat_id": 33887,
        "meta_element_set_no": 999,
        "meta_rev_at_epoch": 88131,
        "meta_bstar": 0.0002235,
        "meta_mean_motion_dot": 6.85e-06,
        "meta_mean_motion_ddot": 0,
        "tle_line1": "1 33887U 97051BG  25344.38446941  .00000685  00000+0  22350-3 0  9991",
        "tle_line2": "2 33887  86.3045   4.4073 0004256 237.1767 187.5472 14.37217786881316"
      },
      "geometry": {
        "type": "Point",
        "coordinates": [
          -6.182103448217282,
          -70.38880594917214
        ]
      }
    },
    {
      "type": "Feature",
      "properties": {
        "norad_id": 33953,
        "name": "IRIDIUM 33 DEB",
        "group": "iridium-33-debris",
        "lat": 12.213138039923589,
        "lon": 55.44595248413407,
        "alt_km": 711.2232763141665,
        "timestamp": "2025-12-10T16:57:12.023051+00:00",
        "meta_object_name": "IRIDIUM 33 DEB",
        "meta_object_id": "1997-051BN",
        "meta_epoch": "2025-12-09T23:18:17.054208",
        "meta_mean_motion": 14.5527898,
        "meta_eccentricity": 0.00184582,
        "meta_inclination": 86.384,
        "meta_ra_of_asc_node": 54.9808,
        "meta_arg_of_pericenter": 111.2598,
        "meta_mean_anomaly": 11.2257,
        "meta_ephemeris_type": 0,
        "meta_classification_type": "U",
        "meta_norad_cat_id": 33953,
        "meta_element_set_no": 999,
        "meta_rev_at_epoch": 88263,
        "meta_bstar": 0.0016887129,
        "meta_mean_motion_dot": 7.353e-05,
        "meta_mean_motion_ddot": 0,
        "tle_line1": "1 33953U 97051BN  25343.97103072  .00007353  00000+0  16887-2 0  9990",
        "tle_line2": "2 33953  86.3840  54.9808 0018458 111.2598  11.2257 14.55278980882635"
      },
      "geometry": {
        "type": "Point",
        "coordinates": [
          55.44595248413407,
          12.213138039923589
        ]
      }
    },
    {
      "type": "Feature",
      "properties": {
        "norad_id": 33960,
        "name": "IRIDIUM 33 DEB",
        "group": "iridium-33-debris",
        "lat": -41.08551111048182,
        "lon": -72.80249131592949,
        "alt_km": 621.6626321414988,
        "timestamp": "2025-12-10T16:57:12.023061+00:00",
        "meta_object_name": "IRIDIUM 33 DEB",
        "meta_object_id": "1997-051BV",
        "meta_epoch": "2025-12-10T08:09:24.835392",
        "meta_mean_motion": 14.84978934,
        "meta_eccentricity": 0.0007472,
        "meta_inclination": 86.2534,
        "meta_ra_of_asc_node": 290.6456,
        "meta_arg_of_pericenter": 66.0574,
        "meta_mean_anomaly": 94.8264,
        "meta_ephemeris_type": 0,
        "meta_classification_type": "U",
        "meta_norad_cat_id": 33960,
        "meta_element_set_no": 999,
        "meta_rev_at_epoch": 88831,
        "meta_bstar": 0.0048552,
        "meta_mean_motion_dot": 0.00041622,
        "meta_mean_motion_ddot": 0,
        "tle_line1": "1 33960U 97051BV  25344.33987078  .00041622  00000+0  48552-2 0  9996",
        "tle_line2": "2 33960  86.2534 290.6456 0007472  66.0574  94.8264 14.84978934888319"
      },
      "geometry": {
        "type": "Point",
        "coordinates": [
          -72.80249131592949,
          -41.08551111048182
        ]
      }
    },
    {
      "type": "Feature",
      "properties": {
        "norad_id": 33966,
        "name": "IRIDIUM 33 DEB",
        "group": "iridium-33-debris",
        "lat": -0.5224113420400713,
        "lon": -133.06722133351562,
        "alt_km": 725.2446948679053,
        "timestamp": "2025-12-10T16:57:12.023072+00:00",
        "meta_object_name": "IRIDIUM 33 DEB",
        "meta_object_id": "1997-051CB",
        "meta_epoch": "2025-12-10T11:13:12.353376",
        "meta_mean_motion": 14.49579409,
        "meta_eccentricity": 0.0007144,
        "meta_inclination": 86.3923,
        "meta_ra_of_asc_node": 47.0023,
        "meta_arg_of_pericenter": 195.7966,
        "meta_mean_anomaly": 178.807,
        "meta_ephemeris_type": 0,
        "meta_classification_type": "U",
        "meta_norad_cat_id": 33966,
        "meta_element_set_no": 999,
        "meta_rev_at_epoch": 88409,
        "meta_bstar": 0.00084014,
        "meta_mean_motion_dot": 3.244e-05,
        "meta_mean_motion_ddot": 0,
        "tle_line1": "1 33966U 97051CB  25344.46750409  .00003244  00000+0  84014-3 0  9994",
        "tle_line2": "2 33966  86.3923  47.0023 0007144 195.7966 178.8070 14.49579409884097"
      },
      "geometry": {
        "type": "Point",
        "coordinates": [
          -133.06722133351562,
          -0.5224113420400713
        ]
      }
    },
    {
      "type": "Feature",
      "properties": {
        "norad_id": 34071,
        "name": "IRIDIUM 33 DEB",
        "group": "iridium-33-debris",
        "lat": -67.5976794108359,
        "lon": -152.36919436128562,
        "alt_km": 739.7404374535608,
        "timestamp": "2025-12-10T16:57:12.023083+00:00",
        "meta_object_name": "IRIDIUM 33 DEB",
        "meta_object_id": "1997-051CE",
        "meta_epoch": "2025-12-10T10:50:36.682944",
        "meta_mean_motion": 14.4944829,
        "meta_eccentricity": 0.0009857,
        "meta_inclination": 86.3457,
        "meta_ra_of_asc_node": 18.8226,
        "meta_arg_of_pericenter": 113.7081,
        "meta_mean_anomaly": 246.5159,
        "meta_ephemeris_type": 0,
        "meta_classification_type": "U",
        "meta_norad_cat_id": 34071,
        "meta_element_set_no": 999,
        "meta_rev_at_epoch": 88301,
        "meta_bstar": 0.00086211,
        "meta_mean_motion_dot": 3.32e-05,
        "meta_mean_motion_ddot": 0,
        "tle_line1": "1 34071U 97051CE  25344.45181346  .00003320  00000+0  86211-3 0  9995",
        "tle_line2": "2 34071  86.3457  18.8226 0009857 113.7081 246.5159 14.49448290883014"
      },
      "geometry": {
        "type": "Point",
        "coordinates": [
          -152.36919436128562,
          -67.5976794108359
        ]
      }
    },
    {
      "type": "Feature",
      "properties": {
        "norad_id": 34077,
        "name": "IRIDIUM 33 DEB",
        "group": "iridium-33-debris",
        "lat": -22.300437797478107,
        "lon": 50.917497194843016,
        "alt_km": 680.456021761187,
        "timestamp": "2025-12-10T16:57:12.023094+00:00",
        "meta_object_name": "IRIDIUM 33 DEB",
        "meta_object_id": "1997-051CL",
        "meta_epoch": "2025-12-10T05:52:42.153312",
        "meta_mean_motion": 14.64781175,
        "meta_eccentricity": 0.0010464,
        "meta_inclination": 86.3859,
        "meta_ra_of_asc_node": 52.6061,
        "meta_arg_of_pericenter": 47.385,
        "meta_mean_anomaly": 18.7078,
        "meta_ephemeris_type": 0,
        "meta_classification_type": "U",
        "meta_norad_cat_id": 34077,
        "meta_element_set_no": 999,
        "meta_rev_at_epoch": 88296,
        "meta_bstar": 0.00232,
        "meta_mean_motion_dot": 0.00012409,
        "meta_mean_motion_ddot": 0,
        "tle_line1": "1 34077U 97051CL  25344.24493233  .00012409  00000+0  23200-2 0  9995",
        "tle_line2": "2 34077  86.3859  52.6061 0010464  47.3850  18.7078 14.64781175882962"
      },
      "geometry": {
        "type": "Point",
        "coordinates": [
          50.917497194843016,
          -22.300437797478107
        ]
      }
    }
  ]
}